STARLINK-30489          
1 57974U 23151L   26068.08009000 -.00001451  00000+0 -44439-4 0  9993
2 57974  43.0031 339.3962 0002370 252.2381 107.8212 15.26719030135672
TOMORROW-S3             
1 62392U 24247R   26068.49782200  .00007664  00000+0  28858-3 0  9991
2 62392  44.9999 117.9871 0000396 320.9462  39.1392 15.27672122 67708
